OBJECT_NAME,OBJECT_ID,EPOCH,MEAN_MOTION,ECCENTRICITY,INCLINATION,RA_OF_ASC_NODE,ARG_OF_PERICENTER,MEAN_ANOMALY,EPHEMERIS_TYPE,CLASSIFICATION_TYPE,NORAD_CAT_ID,ELEMENT_SET_NO,REV_AT_EPOCH,BSTAR,MEAN_MOTION_DOT,MEAN_MOTION_DDOT
LEMUR-2-ALISIA,2025-009DB,2026-07-04T12:18:50.307264,15.03047224,.00032603,97.6947,267.5646,163.9914,196.1415,0,U,62706,999,10276,.12765762E-2,.17169E-3,0
LEMUR-2-ROUNDTRIPPER,2025-009DG,2026-07-04T04:38:04.020576,15.04075178,.00046945,97.7224,267.8497,90.6422,269.5341,0,U,62711,999,8018,.89883264E-3,.12398E-3,0
LEMUR-2-MYNAMEISJEFF,2025-009DH,2026-07-03T23:48:23.909760,15.04062427,.00036335,97.7272,268.0400,124.4759,235.6810,0,U,62712,999,8015,.84105842E-3,.11591E-3,0
LEMUR-2-LEIA-PHILIP,2025-052AN,2026-07-04T15:29:01.236480,14.97368617,.00046082,97.6813,77.3004,148.3131,211.8369,0,U,63246,999,7128,.23855196E-3,.2714E-4,0
LEMUR-2-LIA-MARTIN,2025-052AQ,2026-07-04T15:27:25.072416,14.97957995,.00049035,97.6859,77.8000,117.0608,243.1115,0,U,63248,999,7129,.78212738E-3,.9176E-4,0
LEMUR-2-DELOITTE-1,2025-052BB,2026-07-04T10:08:12.653952,14.97723490,.00023606,97.6889,77.9137,66.0394,294.1075,0,U,63259,999,7127,.43932922E-3,.5094E-4,0
LEMUR-2-EMERSONROSE,2025-052BD,2026-07-04T10:44:09.243744,14.99215108,.00026197,97.6866,78.5276,75.7149,284.4365,0,U,63261,999,7132,.50845904E-3,.6139E-4,0
LEMUR-2-MARACHE-FRAN,2025-052BE,2026-07-04T03:27:18.363456,15.00250703,.00043495,97.6881,78.5808,305.5849,54.4969,0,U,63262,999,7130,.50107517E-3,.6216E-4,0
LEMUR-2-THEFALCONER,2025-052BG,2026-07-03T23:36:20.471328,14.97503207,.00010786,97.6840,77.0825,27.2576,332.8702,0,U,63264,999,7120,.4682205E-3,.5402E-4,0
LEMUR-2-UNTITLED-SC,2025-061A,2026-07-04T05:05:06.959040,15.13589963,.00180396,97.5648,160.4510,201.2225,158.8260,0,U,63351,999,7016,.27339716E-3,.4859E-4,0
LEMUR-2-ESPERANZA,2025-061B,2026-07-04T09:16:16.856544,15.13684830,.00176724,97.5656,160.7216,199.5330,160.5226,0,U,63352,999,7019,.24107242E-3,.4287E-4,0
LEMUR-2-KREMPEL-BRO2,2025-061C,2026-07-04T05:02:28.618944,15.14121203,.00188103,97.5703,161.1018,192.8494,167.2260,0,U,63353,999,7018,.27284095E-3,.4924E-4,0
LEMUR-2-THERMORAPTOR,2025-061D,2026-07-04T09:20:49.410528,15.14206016,.00185442,97.5708,161.3592,190.9868,169.0962,0,U,63354,999,7021,.23737042E-3,.4284E-4,0
LEMUR-2-NEUROSPICY,2025-061E,2026-07-04T08:38:08.277792,15.14321842,.00163315,97.5632,160.9425,194.1645,165.9131,0,U,63355,999,7021,.27462423E-3,.4979E-4,0
LEMUR-2-TILLINFINITY,2025-061F,2026-07-04T09:19:22.995840,15.14907778,.00179152,97.5619,161.2736,182.1210,177.9949,0,U,63356,999,7024,.24580245E-3,.4527E-4,0
LEMUR-2-KREMPEL-BRO1,2025-061G,2026-07-04T03:58:58.290816,15.14710926,.00185013,97.5620,160.9635,184.4809,175.6260,0,U,63357,999,7020,.25355911E-3,.4647E-4,0
LEMUR-2-LANGER2SPACE,2025-061H,2026-07-04T09:27:28.429920,15.14409004,.00162499,97.5626,160.9974,192.1026,167.9818,0,U,63358,999,7022,.25586173E-3,.4646E-4,0
LEMUR-2-BALTO,2025-052BH,2026-07-04T03:05:11.829696,15.00276530,.00059586,97.6925,78.5432,9.8348,350.2991,0,U,63395,999,7130,.57967172E-3,.7207E-4,0
LEMUR-2-KRISH,2025-135AK,2026-07-04T14:17:13.670304,14.96375761,.00015743,97.7757,300.3533,105.0164,255.1231,0,U,64561,999,5652,.8739787E-3,.9848E-4,0
LEMUR-2-HUBBLE-4,2025-135AP,2026-07-04T13:21:38.697696,14.93664991,.00017085,97.7713,299.2584,195.0132,165.1037,0,U,64565,999,5646,.19126937E-3,.1965E-4,0
LEMUR-2-SEJONG-2,2025-135BL,2026-07-04T14:52:17.245056,14.96854524,.00028862,97.7716,300.5234,266.0230,94.0661,0,U,64586,999,5655,.56188807E-3,.6386E-4,0
LEMUR-2-HUBBLE-5,2025-135BT,2026-07-04T07:14:02.636160,14.94188176,.00040968,97.7732,299.6635,284.2668,75.8097,0,U,64840,999,5646,.14065879E-3,.1449E-4,0
LEMUR-2-KARENDARRELL,2025-135BU,2026-07-04T06:13:46.972416,15.00374837,.00113085,97.7700,301.4418,140.0466,220.1592,0,U,64841,999,5657,.87289329E-3,.10926E-3,0
LEMUR-2-LUCILLE-ROSE,2025-135BV,2026-07-04T00:47:24.239616,15.00372162,.0013426,97.7731,301.2490,223.7635,136.2526,0,U,65403,999,5116,.74465543E-3,.9314E-4,0
LEMUR-2-AFFIE-WAUWIE,2025-248C,2026-07-04T13:59:09.364992,15.27915281,.00083373,45.3928,20.6941,195.7546,164.3085,0,U,66295,999,3725,.15875111E-2,.44062E-3,0
LEMUR-2-DEANANDMAEVE,2025-276N,2026-07-03T04:21:54.766368,15.19930878,.00043833,97.4206,257.3935,311.1776,48.9081,0,U,66678,999,3284,.32676553E-3,.6959E-4,0
LEMUR-2-STAS-GORBUK,2025-276W,2026-07-04T10:50:00.209184,15.19569765,.00035852,97.4233,258.6954,303.5126,56.5766,0,U,66686,999,3303,.35972656E-3,.7587E-4,0
LEMUR-2-TEODOR,2025-276DG,2026-07-04T03:40:28.937280,15.21240000,.0002347,97.4143,258.6599,99.4343,260.7159,0,U,66768,999,3302,.35496327E-3,.786E-4,0
LEMUR-2-LAILA,2025-276DQ,2026-07-04T04:34:03.204768,15.21465807,.00028377,97.4166,258.8280,111.0448,249.1092,0,U,66776,999,3303,.33519732E-3,.7468E-4,0
